[{"OBJECT_NAME":"STARLINK-31121","OBJECT_ID":"2023-211U","EPOCH":"2026-03-09T11:01:09.708096","MEAN_MOTION":15.27644877,"ECCENTRICITY":0.00011028,"INCLINATION":42.9995,"RA_OF_ASC_NODE":86.2025,"ARG_OF_PERICENTER":209.0829,"MEAN_ANOMALY":150.9962,"EPHEMERIS_TYPE":0,"CLASSIFICATION_TYPE":"U","NORAD_CAT_ID":58685,"ELEMENT_SET_NO":999,"REV_AT_EPOCH":12243,"BSTAR":-0.0006483732,"MEAN_MOTION_DOT":-0.00018096,"MEAN_MOTION_DDOT":0},{"OBJECT_NAME":"OBJECT A","OBJECT_ID":"2024-203A","EPOCH":"2026-03-09T23:31:20.812800","MEAN_MOTION":15.27300571,"ECCENTRICITY":0.00108989,"INCLINATION":97.4288,"RA_OF_ASC_NODE":139.5608,"ARG_OF_PERICENTER":322.6893,"MEAN_ANOMALY":37.3588,"EPHEMERIS_TYPE":0,"CLASSIFICATION_TYPE":"U","NORAD_CAT_ID":61869,"ELEMENT_SET_NO":999,"REV_AT_EPOCH":7380,"BSTAR":0.00061472876,"MEAN_MOTION_DOT":0.00016411,"MEAN_MOTION_DDOT":0}]
